{"fetched_at":"2026-03-29T16:36:15Z","count":15609,"tles":[{"name":"AEROCUBE 6B","line1":"1 40046U 14033AN  26087.72591805  .00008113  00000+0  67357-3 0  9998","line2":"2 40046  97.7122 255.2448 0036968 275.3956  84.3049 14.98496234634701","category":"Other"}]}