{
  "norad_id": 40046,
  "name": "AEROCUBE 6B",
  "history": [
    {
      "epoch": "2026-03-28T17:25:19.319520",
      "apogee_km": 597.233932872583,
      "perigee_km": 545.8498141981709,
      "latitude_deg": -81.88363314138152,
      "longitude_deg": 54.28813280002214,
      "semi_major_axis_km": 6949.678873535377,
      "eccentricity": 0.00369687,
      "inclination_deg": 97.7122,
      "raan_deg": 255.2448,
      "arg_perigee_deg": 275.3956,
      "mean_anomaly_deg": 84.3049,
      "mean_motion_rev_day": 14.98496234
    }
  ]
}